[{"OBJECT_NAME":"HELIOS 1B","OBJECT_ID":"1999-064A","EPOCH":"2026-03-19T17:38:48.079680","MEAN_MOTION":14.87736134,"ECCENTRICITY":0.0002215,"INCLINATION":98.1685,"RA_OF_ASC_NODE":341.2734,"ARG_OF_PERICENTER":60.6796,"MEAN_ANOMALY":299.464,"EPHEMERIS_TYPE":0,"CLASSIFICATION_TYPE":"U","NORAD_CAT_ID":25977,"ELEMENT_SET_NO":999,"REV_AT_EPOCH":68675,"BSTAR":0.00015891,"MEAN_MOTION_DOT":1.39e-5,"MEAN_MOTION_DDOT":0},{"OBJECT_NAME":"TERRA","OBJECT_ID":"1999-068A","EPOCH":"2026-03-19T20:32:48.611616","MEAN_MOTION":14.61024952,"ECCENTRICITY":0.0003265,"INCLINATION":97.9572,"RA_OF_ASC_NODE":131.9015,"ARG_OF_PERICENTER":129.7135,"MEAN_ANOMALY":317.2419,"EPHEMERIS_TYPE":0,"CLASSIFICATION_TYPE":"U","NORAD_CAT_ID":25994,"ELEMENT_SET_NO":999,"REV_AT_EPOCH":39656,"BSTAR":8.147e-5,"MEAN_MOTION_DOT":3.55e-6,"MEAN_MOTION_DDOT":0},{"OBJECT_NAME":"SL-16 R/B","OBJECT_ID":"2000-006B","EPOCH":"2026-03-19T06:25:38.032320","MEAN_MOTION":14.15823696,"ECCENTRICITY":0.0016253,"INCLINATION":71.0004,"RA_OF_ASC_NODE":77.6957,"ARG_OF_PERICENTER":175.2757,"MEAN_ANOMALY":184.8522,"EPHEMERIS_TYPE":0,"CLASSIFICATION_TYPE":"U","NORAD_CAT_ID":26070,"ELEMENT_SET_NO":999,"REV_AT_EPOCH":34991,"BSTAR":-3.9104947e-5,"MEAN_MOTION_DOT":-1.25e-6,"MEAN_MOTION_DDOT":0},{"OBJECT_NAME":"TITAN 4B R/B","OBJECT_ID":"2000-047B","EPOCH":"2026-03-19T20:00:28.826208","MEAN_MOTION":15.09657426,"ECCENTRICITY":0.0039121,"INCLINATION":67.9913,"RA_OF_ASC_NODE":11.9841,"ARG_OF_PERICENTER":23.3772,"MEAN_ANOMALY":336.9144,"EPHEMERIS_TYPE":0,"CLASSIFICATION_TYPE":"U","NORAD_CAT_ID":26474,"ELEMENT_SET_NO":999,"REV_AT_EPOCH":39444,"BSTAR":0.0002288,"MEAN_MOTION_DOT":3.621e-5,"MEAN_MOTION_DDOT":0},{"OBJECT_NAME":"ENVISAT","OBJECT_ID":"2002-009A","EPOCH":"2026-03-19T19:47:45.204864","MEAN_MOTION":14.39040384,"ECCENTRICITY":0.0001297,"INCLINATION":98.3746,"RA_OF_ASC_NODE":32.1818,"ARG_OF_PERICENTER":82.2096,"MEAN_ANOMALY":296.1609,"EPHEMERIS_TYPE":0,"CLASSIFICATION_TYPE":"U","NORAD_CAT_ID":27386,"ELEMENT_SET_NO":999,"REV_AT_EPOCH":26063,"BSTAR":4.3205e-5,"MEAN_MOTION_DOT":9.1e-7,"MEAN_MOTION_DDOT":0},{"OBJECT_NAME":"IDEFIX & ARIANE 42P R/B","OBJECT_ID":"2002-021B","EPOCH":"2026-03-19T20:15:20.950272","MEAN_MOTION":14.31032832,"ECCENTRICITY":0.0012161,"INCLINATION":98.5881,"RA_OF_ASC_NODE":17.3295,"ARG_OF_PERICENTER":152.5787,"MEAN_ANOMALY":207.604,"EPHEMERIS_TYPE":0,"CLASSIFICATION_TYPE":"U","NORAD_CAT_ID":27422,"ELEMENT_SET_NO":999,"REV_AT_EPOCH":24547,"BSTAR":0.00010587,"MEAN_MOTION_DOT":2.35e-6,"MEAN_MOTION_DDOT":0},{"OBJECT_NAME":"AQUA","OBJECT_ID":"2002-022A","EPOCH":"2026-03-19T21:01:30.679392","MEAN_MOTION":14.61999876,"ECCENTRICITY":7.7e-5,"INCLINATION":98.4193,"RA_OF_ASC_NODE":46.4278,"ARG_OF_PERICENTER":112.3585,"MEAN_ANOMALY":276.5542,"EPHEMERIS_TYPE":0,"CLASSIFICATION_TYPE":"U","NORAD_CAT_ID":27424,"ELEMENT_SET_NO":999,"REV_AT_EPOCH":27022,"BSTAR":0.00017661,"MEAN_MOTION_DOT":8.36e-6,"MEAN_MOTION_DDOT":0},{"OBJECT_NAME":"CZ-4B R/B","OBJECT_ID":"2002-024C","EPOCH":"2026-03-19T18:32:11.143680","MEAN_MOTION":14.14549359,"ECCENTRICITY":0.004997,"INCLINATION":98.8816,"RA_OF_ASC_NODE":132.1272,"ARG_OF_PERICENTER":355.6453,"MEAN_ANOMALY":112.4368,"EPHEMERIS_TYPE":0,"CLASSIFICATION_TYPE":"U","NORAD_CAT_ID":27432,"ELEMENT_SET_NO":999,"REV_AT_EPOCH":23066,"BSTAR":4.0835e-5,"MEAN_MOTION_DOT":3.5e-7,"MEAN_MOTION_DDOT":0},{"OBJECT_NAME":"MIDORI II (ADEOS-II)","OBJECT_ID":"2002-056A","EPOCH":"2026-03-19T19:32:40.388640","MEAN_MOTION":14.2929256,"ECCENTRICITY":0.0001173,"INCLINATION":98.7787,"RA_OF_ASC_NODE":37.363,"ARG_OF_PERICENTER":29.4876,"MEAN_ANOMALY":330.6371,"EPHEMERIS_TYPE":0,"CLASSIFICATION_TYPE":"U","NORAD_CAT_ID":27597,"ELEMENT_SET_NO":999,"REV_AT_EPOCH":21174,"BSTAR":0.00011934,"MEAN_MOTION_DOT":2.58e-6,"MEAN_MOTION_DDOT":0},{"OBJECT_NAME":"H-2A R/B","OBJECT_ID":"2002-056E","EPOCH":"2026-03-19T19:49:58.855296","MEAN_MOTION":14.33767146,"ECCENTRICITY":0.0071056,"INCLINATION":98.3221,"RA_OF_ASC_NODE":38.8071,"ARG_OF_PERICENTER":130.7231,"MEAN_ANOMALY":290.2212,"EPHEMERIS_TYPE":0,"CLASSIFICATION_TYPE":"U","NORAD_CAT_ID":27601,"ELEMENT_SET_NO":999,"REV_AT_EPOCH":21556,"BSTAR":9.4892e-5,"MEAN_MOTION_DOT":2.3e-6,"MEAN_MOTION_DDOT":0},{"OBJECT_NAME":"CZ-4B R/B","OBJECT_ID":"2003-049C","EPOCH":"2026-03-19T20:04:08.551776","MEAN_MOTION":14.55029243,"ECCENTRICITY":0.0047738,"INCLINATION":98.6888,"RA_OF_ASC_NODE":74.1398,"ARG_OF_PERICENTER":199.4655,"MEAN_ANOMALY":160.472,"EPHEMERIS_TYPE":0,"CLASSIFICATION_TYPE":"U","NORAD_CAT_ID":28059,"ELEMENT_SET_NO":999,"REV_AT_EPOCH":18807,"BSTAR":8.1553e-5,"MEAN_MOTION_DOT":3.05e-6,"MEAN_MOTION_DDOT":0},{"OBJECT_NAME":"CZ-2C R/B","OBJECT_ID":"2004-012C","EPOCH":"2026-03-19T17:03:36.774720","MEAN_MOTION":15.65653715,"ECCENTRICITY":0.0012905,"INCLINATION":97.7202,"RA_OF_ASC_NODE":144.9609,"ARG_OF_PERICENTER":268.332,"MEAN_ANOMALY":91.646,"EPHEMERIS_TYPE":0,"CLASSIFICATION_TYPE":"U","NORAD_CAT_ID":28222,"ELEMENT_SET_NO":999,"REV_AT_EPOCH":20584,"BSTAR":0.00041691,"MEAN_MOTION_DOT":0.00042146,"MEAN_MOTION_DDOT":0},{"OBJECT_NAME":"SL-16 R/B","OBJECT_ID":"2004-021B","EPOCH":"2026-03-19T18:44:43.229760","MEAN_MOTION":14.14593755,"ECCENTRICITY":0.0004554,"INCLINATION":70.9997,"RA_OF_ASC_NODE":211.3144,"ARG_OF_PERICENTER":357.0332,"MEAN_ANOMALY":3.0762,"EPHEMERIS_TYPE":0,"CLASSIFICATION_TYPE":"U","NORAD_CAT_ID":28353,"ELEMENT_SET_NO":999,"REV_AT_EPOCH":12426,"BSTAR":-8.1509e-5,"MEAN_MOTION_DOT":-2.04e-6,"MEAN_MOTION_DDOT":0},{"OBJECT_NAME":"CZ-4B R/B","OBJECT_ID":"2004-035C","EPOCH":"2026-03-19T15:49:34.038336","MEAN_MOTION":15.2922739,"ECCENTRICITY":0.0030149,"INCLINATION":97.3475,"RA_OF_ASC_NODE":112.7825,"ARG_OF_PERICENTER":294.4714,"MEAN_ANOMALY":65.3382,"EPHEMERIS_TYPE":0,"CLASSIFICATION_TYPE":"U","NORAD_CAT_ID":28415,"ELEMENT_SET_NO":999,"REV_AT_EPOCH":18143,"BSTAR":0.00021074,"MEAN_MOTION_DOT":5.979e-5,"MEAN_MOTION_DDOT":0},{"OBJECT_NAME":"CZ-2C R/B","OBJECT_ID":"2004-046B","EPOCH":"2026-03-19T17:20:57.708960","MEAN_MOTION":14.26995367,"ECCENTRICITY":0.0140371,"INCLINATION":98.1981,"RA_OF_ASC_NODE":353.0821,"ARG_OF_PERICENTER":124.9261,"MEAN_ANOMALY":236.5203,"EPHEMERIS_TYPE":0,"CLASSIFICATION_TYPE":"U","NORAD_CAT_ID":28480,"ELEMENT_SET_NO":999,"REV_AT_EPOCH":10993,"BSTAR":5.3475e-5,"MEAN_MOTION_DOT":1.04e-6,"MEAN_MOTION_DDOT":0},{"OBJECT_NAME":"ARIANE 5 R/B","OBJECT_ID":"2004-049H","EPOCH":"2026-03-19T04:46:24.295584","MEAN_MOTION":14.85282693,"ECCENTRICITY":0.00832985,"INCLINATION":98.264,"RA_OF_ASC_NODE":247.0128,"ARG_OF_PERICENTER":320.9257,"MEAN_ANOMALY":38.5958,"EPHEMERIS_TYPE":0,"CLASSIFICATION_TYPE":"U","NORAD_CAT_ID":28499,"ELEMENT_SET_NO":999,"REV_AT_EPOCH":14720,"BSTAR":7.9827817e-5,"MEAN_MOTION_DOT":6.63e-6,"MEAN_MOTION_DDOT":0},{"OBJECT_NAME":"CZ-2D R/B","OBJECT_ID":"2005-024B","EPOCH":"2026-03-18T22:37:37.967520","MEAN_MOTION":15.6096132,"ECCENTRICITY":0.00042407,"INCLINATION":97.3581,"RA_OF_ASC_NODE":93.4338,"ARG_OF_PERICENTER":21.1997,"MEAN_ANOMALY":338.9435,"EPHEMERIS_TYPE":0,"CLASSIFICATION_TYPE":"U","NORAD_CAT_ID":28738,"ELEMENT_SET_NO":999,"REV_AT_EPOCH":14122,"BSTAR":0.00041354643,"MEAN_MOTION_DOT":0.00034641,"MEAN_MOTION_DDOT":0}]
